start=new Date('2023-06-04T00:00:00.000Z').valueOf();
sats=[{"SEMIMAJOR_AXIS":"6937.190","OBJECT_NAME":"STARLINK-5571","RA_OF_ASC_NODE":"14.0082","SITE":"AFETR","REV_AT_EPOCH":"1996","MEAN_MOTION_DOT":"0.00001016","CENTER_NAME":"EARTH","MEAN_MOTION_DDOT":"0.0000000000000","LAUNCH_DATE":"2023-01-26","TIME_SYSTEM":"UTC","COUNTRY_CODE":"US","ELEMENT_SET_NO":"999","ECCENTRICITY":"0.00014310","INCLINATION":"43.0042","TLE_LINE2":"2 55380  43.0042  14.0082 0001431 269.5044  90.5634 15.02544482 19967","TLE_LINE1":"1 55380U 23013BB  23154.90202279  .00001016  00000-0  90248-4 0  9991","EPOCH":"2023-06-03T21:38:54.769056","PERIAPSIS":"558.063","MEAN_ELEMENT_THEORY":"SGP4","RCS_SIZE":"LARGE","ARG_OF_PERICENTER":"269.5044","CLASSIFICATION_TYPE":"U","BSTAR":"0.00009024800000","OBJECT_ID":"2023-013BB","EPHEMERIS_TYPE":"0","NORAD_CAT_ID":"55380","MEAN_ANOMALY":"90.5634","APOAPSIS":"560.048","OBJECT_TYPE":"PAYLOAD","FILE":"3924324","GP_ID":"233146172","REF_FRAME":"TEME","PERIOD":"95.837","DECAY_DATE":null,"MEAN_MOTION":"15.02544482"},{"SEMIMAJOR_AXIS":"6937.219","OBJECT_NAME":"STARLINK-5575","RA_OF_ASC_NODE":"40.2530","TLE_LINE2":"2 55381  43.0040  40.2530 0001590 263.1498  96.9164 15.02535196 19650","TLE_LINE1":"1 55381U 23013BC  23154.82060583  .00000684  00000-0  65712-4 0  9991","PERIAPSIS":"557.981","EPOCH":"2023-06-03T19:41:40.343712","COUNTRY_CODE":"US","ELEMENT_SET_NO":"999","ECCENTRICITY":"0.00015900","INCLINATION":"43.0040","MEAN_MOTION_DDOT":"0.0000000000000","CENTER_NAME":"EARTH","TIME_SYSTEM":"UTC","LAUNCH_DATE":"2023-01-26","REV_AT_EPOCH":"1965","SITE":"AFETR","MEAN_MOTION_DOT":"0.00000684","CLASSIFICATION_TYPE":"U","ARG_OF_PERICENTER":"263.1498","RCS_SIZE":"LARGE","MEAN_ELEMENT_THEORY":"SGP4","GP_ID":"233146423","PERIOD":"95.838","REF_FRAME":"TEME","DECAY_DATE":null,"MEAN_MOTION":"15.02535196","OBJECT_TYPE":"PAYLOAD","FILE":"3924324","APOAPSIS":"560.187","BSTAR":"0.00006571200000","OBJECT_ID":"2023-013BC","EPHEMERIS_TYPE":"0","NORAD_CAT_ID":"55381","MEAN_ANOMALY":"96.9164"},{"OBJECT_ID":"2023-013BD","BSTAR":"0.00021530000000","EPHEMERIS_TYPE":"0","NORAD_CAT_ID":"55382","MEAN_ANOMALY":"97.3125","APOAPSIS":"560.049","OBJECT_TYPE":"PAYLOAD","FILE":"3924324","GP_ID":"233147174","REF_FRAME":"TEME","PERIOD":"95.838","MEAN_MOTION":"15.02538689","DECAY_DATE":null,"MEAN_ELEMENT_THEORY":"SGP4","RCS_SIZE":"LARGE","ARG_OF_PERICENTER":"262.7557","CLASSIFICATION_TYPE":"U","REV_AT_EPOCH":"1965","SITE":"AFETR","MEAN_MOTION_DOT":"0.00002706","MEAN_MOTION_DDOT":"0.0000000000000","CENTER_NAME":"EARTH","TIME_SYSTEM":"UTC","LAUNCH_DATE":"2023-01-26","COUNTRY_CODE":"US","ELEMENT_SET_NO":"999","ECCENTRICITY":"0.00014070","INCLINATION":"43.0042","TLE_LINE1":"1 55382U 23013BD  23154.82948683  .00002706  00000-0  21530-3 0  9994","TLE_LINE2":"2 55382  43.0042  40.3254 0001407 262.7557  97.3125 15.02538689 19657","EPOCH":"2023-06-03T19:54:27.662112","PERIAPSIS":"558.097","SEMIMAJOR_AXIS":"6937.208","OBJECT_NAME":"STARLINK-5576","RA_OF_ASC_NODE":"40.3254"},{"APOAPSIS":"559.992","MEAN_ANOMALY":"89.3607","NORAD_CAT_ID":"55383","EPHEMERIS_TYPE":"0","BSTAR":"-0.00000619040000","OBJECT_ID":"2023-013BE","DECAY_DATE":null,"MEAN_MOTION":"15.02538607","REF_FRAME":"TEME","PERIOD":"95.838","GP_ID":"233145922","FILE":"3924324","OBJECT_TYPE":"PAYLOAD","RCS_SIZE":"LARGE","MEAN_ELEMENT_THEORY":"SGP4","CLASSIFICATION_TYPE":"U","ARG_OF_PERICENTER":"270.7084","LAUNCH_DATE":"2023-01-26","TIME_SYSTEM":"UTC","CENTER_NAME":"EARTH","MEAN_MOTION_DDOT":"0.0000000000000","MEAN_MOTION_DOT":"-0.00000287","SITE":"AFETR","REV_AT_EPOCH":"1996","EPOCH":"2023-06-03T21:35:43.269504","PERIAPSIS":"558.155","TLE_LINE1":"1 55383U 23013BE  23154.89980636 -.00000287  00000-0 -61904-5 0  9991","TLE_LINE2":"2 55383  43.0042  13.9868 0001324 270.7084  89.3607 15.02538607 19967","INCLINATION":"43.0042","ECCENTRICITY":"0.00013240","ELEMENT_SET_NO":"999","COUNTRY_CODE":"US","RA_OF_ASC_NODE":"13.9868","OBJECT_NAME":"STARLINK-5531","SEMIMAJOR_AXIS":"6937.209"},{"OBJECT_TYPE":"PAYLOAD","FILE":"3924324","PERIOD":"95.838","REF_FRAME":"TEME","MEAN_MOTION":"15.02539978","DECAY_DATE":null,"GP_ID":"233145672","NORAD_CAT_ID":"55384","MEAN_ANOMALY":"102.2440","OBJECT_ID":"2023-013BF","BSTAR":"0.00006569900000","EPHEMERIS_TYPE":"0","APOAPSIS":"560.141","ARG_OF_PERICENTER":"257.8229","CLASSIFICATION_TYPE":"U","MEAN_ELEMENT_THEORY":"SGP4","RCS_SIZE":"LARGE","ECCENTRICITY":"0.00015450","INCLINATION":"43.0051","COUNTRY_CODE":"US","ELEMENT_SET_NO":"999","TLE_LINE2":"2 55384  43.0051  40.2997 0001545 257.8229 102.2440 15.02539978 19654","TLE_LINE1":"1 55384U 23013BF  23154.82615352  .00000684  00000-0  65699-4 0  9998","PERIAPSIS":"557.997","EPOCH":"2023-06-03T19:49:39.664128","MEAN_MOTION_DOT":"0.00000684","REV_AT_EPOCH":"1965","SITE":"AFETR","TIME_SYSTEM":"UTC","LAUNCH_DATE":"2023-01-26","MEAN_MOTION_DDOT":"0.0000000000000","CENTER_NAME":"EARTH","OBJECT_NAME":"STARLINK-5537","RA_OF_ASC_NODE":"40.2997","SEMIMAJOR_AXIS":"6937.204"},{"RCS_SIZE":"LARGE","MEAN_ELEMENT_THEORY":"SGP4","CLASSIFICATION_TYPE":"U","ARG_OF_PERICENTER":"264.6177","APOAPSIS":"560.120","MEAN_ANOMALY":"95.4495","NORAD_CAT_ID":"55385","EPHEMERIS_TYPE":"0","OBJECT_ID":"2023-013BG","BSTAR":"-0.00000286280000","DECAY_DATE":null,"MEAN_MOTION":"15.02535775","PERIOD":"95.838","REF_FRAME":"TEME","GP_ID":"233146924","OBJECT_TYPE":"PAYLOAD","FILE":"3924324","RA_OF_ASC_NODE":"39.4636","OBJECT_NAME":"STARLINK-5556","SEMIMAJOR_AXIS":"6937.217","TIME_SYSTEM":"UTC","LAUNCH_DATE":"2023-01-26","CENTER_NAME":"EARTH","MEAN_MOTION_DDOT":"0.0000000000000","MEAN_MOTION_DOT":"-0.00000242","SITE":"AFETR","REV_AT_EPOCH":"1967","PERIAPSIS":"558.044","EPOCH":"2023-06-03T22:40:20.697600","TLE_LINE2":"2 55385  43.0047  39.4636 0001496 264.6177  95.4495 15.02535775 19679","TLE_LINE1":"1 55385U 23013BG  23154.94468400 -.00000242  00000-0 -28628-5 0  9996","INCLINATION":"43.0047","ECCENTRICITY":"0.00014960","ELEMENT_SET_NO":"999","COUNTRY_CODE":"US"},{"PERIAPSIS":"557.956","EPOCH":"2023-06-03T19:33:40.959360","TLE_LINE1":"1 55386U 23013BH  23154.81505740  .00003581  00000-0  28003-3 0  9994","TLE_LINE2":"2 55386  43.0037  40.2118 0001608 267.4037  92.6621 15.02539163 19658","INCLINATION":"43.0037","ECCENTRICITY":"0.00016080","ELEMENT_SET_NO":"999","COUNTRY_CODE":"US","LAUNCH_DATE":"2023-01-26","TIME_SYSTEM":"UTC","CENTER_NAME":"EARTH","MEAN_MOTION_DDOT":"0.0000000000000","MEAN_MOTION_DOT":"0.00003581","SITE":"AFETR","REV_AT_EPOCH":"1965","RA_OF_ASC_NODE":"40.2118","OBJECT_NAME":"STARLINK-5555","SEMIMAJOR_AXIS":"6937.207","DECAY_DATE":null,"MEAN_MOTION":"15.02539163","PERIOD":"95.838","REF_FRAME":"TEME","GP_ID":"233146674","OBJECT_TYPE":"PAYLOAD","FILE":"3924324","APOAPSIS":"560.187","MEAN_ANOMALY":"92.6621","NORAD_CAT_ID":"55386","EPHEMERIS_TYPE":"0","BSTAR":"0.00028003000000","OBJECT_ID":"2023-013BH","CLASSIFICATION_TYPE":"U","ARG_OF_PERICENTER":"267.4037","RCS_SIZE":"LARGE","MEAN_ELEMENT_THEORY":"SGP4"},{"MEAN_ELEMENT_THEORY":"SGP4","RCS_SIZE":"LARGE","ARG_OF_PERICENTER":"259.1990","CLASSIFICATION_TYPE":"U","NORAD_CAT_ID":"55391","MEAN_ANOMALY":"100.8826","OBJECT_ID":"2023-014A","BSTAR":"0.00000464830000","EPHEMERIS_TYPE":"0","APOAPSIS":"361.408","FILE":"3924324","OBJECT_TYPE":"PAYLOAD","REF_FRAME":"TEME","PERIOD":"91.724","DECAY_DATE":null,"MEAN_MOTION":"15.69918950","GP_ID":"233145422","OBJECT_NAME":"STARLINK-5077","RA_OF_ASC_NODE":"103.2359","SEMIMAJOR_AXIS":"6737.266","MEAN_MOTION_DOT":"0.00000346","REV_AT_EPOCH":"2048","SITE":"AFWTR","LAUNCH_DATE":"2023-01-31","TIME_SYSTEM":"UTC","MEAN_MOTION_DDOT":"0.0000000000000","CENTER_NAME":"EARTH","ECCENTRICITY":"0.00033800","INCLINATION":"69.9967","COUNTRY_CODE":"US","ELEMENT_SET_NO":"999","TLE_LINE2":"2 55391  69.9967 103.2359 0003380 259.1990 100.8826 15.69918950 20485","TLE_LINE1":"1 55391U 23014A   23154.90836308  .00000346  00000-0  46483-5 0  9998","PERIAPSIS":"356.854","EPOCH":"2023-06-03T21:48:02.570112"},{"MEAN_MOTION_DOT":"0.00001058","SITE":"AFWTR","REV_AT_EPOCH":"2048","TIME_SYSTEM":"UTC","LAUNCH_DATE":"2023-01-31","CENTER_NAME":"EARTH","MEAN_MOTION_DDOT":"0.0000000000000","ECCENTRICITY":"0.00035050","INCLINATION":"69.9976","COUNTRY_CODE":"US","ELEMENT_SET_NO":"999","TLE_LINE2":"2 55392  69.9976 103.2432 0003505 257.7213 102.3590 15.69931038 20486","TLE_LINE1":"1 55392U 23014B   23154.90601131  .00001058  00000-0  10566-4 0  9996","PERIAPSIS":"356.735","EPOCH":"2023-06-03T21:44:39.377184","OBJECT_NAME":"STARLINK-5085","RA_OF_ASC_NODE":"103.2432","SEMIMAJOR_AXIS":"6737.231","NORAD_CAT_ID":"55392","MEAN_ANOMALY":"102.3590","BSTAR":"0.00001056600000","OBJECT_ID":"2023-014B","EPHEMERIS_TYPE":"0","APOAPSIS":"361.458","FILE":"3924324","OBJECT_TYPE":"PAYLOAD","REF_FRAME":"TEME","PERIOD":"91.724","MEAN_MOTION":"15.69931038","DECAY_DATE":null,"GP_ID":"233146173","MEAN_ELEMENT_THEORY":"SGP4","RCS_SIZE":"LARGE","ARG_OF_PERICENTER":"257.7213","CLASSIFICATION_TYPE":"U"},{"OBJECT_ID":"2023-014C","BSTAR":"0.00000187690000","EPHEMERIS_TYPE":"0","NORAD_CAT_ID":"55393","MEAN_ANOMALY":"91.2983","APOAPSIS":"361.547","OBJECT_TYPE":"PAYLOAD","FILE":"3924324","GP_ID":"233146424","REF_FRAME":"TEME","PERIOD":"91.724","DECAY_DATE":null,"MEAN_MOTION":"15.69920026","MEAN_ELEMENT_THEORY":"SGP4","RCS_SIZE":"LARGE","ARG_OF_PERICENTER":"268.7801","CLASSIFICATION_TYPE":"U","SITE":"AFWTR","REV_AT_EPOCH":"2048","MEAN_MOTION_DOT":"0.00000013","CENTER_NAME":"EARTH","MEAN_MOTION_DDOT":"0.0000000000000","LAUNCH_DATE":"2023-01-31","TIME_SYSTEM":"UTC","COUNTRY_CODE":"US","ELEMENT_SET_NO":"999","ECCENTRICITY":"0.00035910","INCLINATION":"69.9973","TLE_LINE2":"2 55393  69.9973 103.2369 0003591 268.7801  91.2983 15.69920026 20480","TLE_LINE1":"1 55393U 23014C   23154.90857335  .00000013  00000-0  18769-5 0  9990","EPOCH":"2023-06-03T21:48:20.737440","PERIAPSIS":"356.708","SEMIMAJOR_AXIS":"6737.263","OBJECT_NAME":"STARLINK-4786","RA_OF_ASC_NODE":"103.2369"}];
